{
  "type": "FeatureCollection",
  "features": [
    {
      "type": "Feature",
      "properties": {
        "norad_id": 42989,
        "name": "SKYSAT-C9",
        "group": "resource",
        "lat": 72.18982022722078,
        "lon": 103.73011336103816,
        "alt_km": 443.4468119527619,
        "timestamp": "2025-12-23T07:45:09.054184+00:00",
        "meta_object_name": "SKYSAT-C9",
        "meta_object_id": "2017-068C",
        "meta_epoch": "2025-12-22T22:03:14.284512",
        "meta_mean_motion": 15.36294506,
        "meta_eccentricity": 0.00103841,
        "meta_inclination": 97.4197,
        "meta_ra_of_asc_node": 127.2545,
        "meta_arg_of_pericenter": 55.2343,
        "meta_mean_anomaly": 304.9877,
        "meta_ephemeris_type": 0,
        "meta_classification_type": "U",
        "meta_norad_cat_id": 42989,
        "meta_element_set_no": 999,
        "meta_rev_at_epoch": 45564,
        "meta_bstar": 0.00039577378,
        "meta_mean_motion_dot": 0.00013955,
        "meta_mean_motion_ddot": 0,
        "tle_line1": "1 42989U 17068C   25356.91891533  .00013955  00000+0  39577-3 0  9990",
        "tle_line2": "2 42989  97.4197 127.2545 0010384  55.2343 304.9877 15.36294506455648"
      },
      "geometry": {
        "type": "Point",
        "coordinates": [
          103.73011336103816,
          72.18982022722078
        ]
      }
    },
    {
      "type": "Feature",
      "properties": {
        "norad_id": 42990,
        "name": "SKYSAT-C8",
        "group": "resource",
        "lat": -73.43767730702113,
        "lon": 153.3970785877921,
        "alt_km": 473.07859356945664,
        "timestamp": "2025-12-23T07:45:09.054194+00:00",
        "meta_object_name": "SKYSAT-C8",
        "meta_object_id": "2017-068D",
        "meta_epoch": "2025-12-22T19:32:54.396672",
        "meta_mean_motion": 15.33130877,
        "meta_eccentricity": 0.0001011,
        "meta_inclination": 97.4294,
        "meta_ra_of_asc_node": 126.8603,
        "meta_arg_of_pericenter": 287.7058,
        "meta_mean_anomaly": 72.4073,
        "meta_ephemeris_type": 0,
        "meta_classification_type": "U",
        "meta_norad_cat_id": 42990,
        "meta_element_set_no": 999,
        "meta_rev_at_epoch": 45525,
        "meta_bstar": 0.00037108579,
        "meta_mean_motion_dot": 0.00011804,
        "meta_mean_motion_ddot": 0,
        "tle_line1": "1 42990U 17068D   25356.81451848  .00011804  00000+0  37109-3 0  9992",
        "tle_line2": "2 42990  97.4294 126.8603 0001011 287.7058  72.4073 15.33130877455259"
      },
      "geometry": {
        "type": "Point",
        "coordinates": [
          153.3970785877921,
          -73.43767730702113
        ]
      }
    },
    {
      "type": "Feature",
      "properties": {
        "norad_id": 42991,
        "name": "SKYSAT-C7",
        "group": "resource",
        "lat": 61.44104328283157,
        "lon": -37.72342636750404,
        "alt_km": 462.5970981967903,
        "timestamp": "2025-12-23T07:45:09.054204+00:00",
        "meta_object_name": "SKYSAT-C7",
        "meta_object_id": "2017-068E",
        "meta_epoch": "2025-12-22T20:16:20.403840",
        "meta_mean_motion": 15.32529052,
        "meta_eccentricity": 0.00069664,
        "meta_inclination": 97.43,
        "meta_ra_of_asc_node": 127.9237,
        "meta_arg_of_pericenter": 25.638,
        "meta_mean_anomaly": 334.5206,
        "meta_ephemeris_type": 0,
        "meta_classification_type": "U",
        "meta_norad_cat_id": 42991,
        "meta_element_set_no": 999,
        "meta_rev_at_epoch": 45532,
        "meta_bstar": 0.0003815583,
        "meta_mean_motion_dot": 0.0001192,
        "meta_mean_motion_ddot": 0,
        "tle_line1": "1 42991U 17068E   25356.84468060  .00011920  00000+0  38156-3 0  9992",
        "tle_line2": "2 42991  97.4300 127.9237 0006966  25.6380 334.5206 15.32529052455328"
      },
      "geometry": {
        "type": "Point",
        "coordinates": [
          -37.72342636750404,
          61.44104328283157
        ]
      }
    },
    {
      "type": "Feature",
      "properties": {
        "norad_id": 42992,
        "name": "SKYSAT-C6",
        "group": "resource",
        "lat": -22.419072701512242,
        "lon": -54.254110400884905,
        "alt_km": 479.10799491680064,
        "timestamp": "2025-12-23T07:45:09.054214+00:00",
        "meta_object_name": "SKYSAT-C6",
        "meta_object_id": "2017-068F",
        "meta_epoch": "2025-12-22T19:53:45.861792",
        "meta_mean_motion": 15.31684652,
        "meta_eccentricity": 0.00048691,
        "meta_inclination": 97.4328,
        "meta_ra_of_asc_node": 128.3379,
        "meta_arg_of_pericenter": 55.1804,
        "meta_mean_anomaly": 304.9894,
        "meta_ephemeris_type": 0,
        "meta_classification_type": "U",
        "meta_norad_cat_id": 42992,
        "meta_element_set_no": 999,
        "meta_rev_at_epoch": 45530,
        "meta_bstar": 0.00035608975,
        "meta_mean_motion_dot": 0.00010824,
        "meta_mean_motion_ddot": 0,
        "tle_line1": "1 42992U 17068F   25356.82900303  .00010824  00000+0  35609-3 0  9994",
        "tle_line2": "2 42992  97.4328 128.3379 0004869  55.1804 304.9894 15.31684652455309"
      },
      "geometry": {
        "type": "Point",
        "coordinates": [
          -54.254110400884905,
          -22.419072701512242
        ]
      }
    },
    {
      "type": "Feature",
      "properties": {
        "norad_id": 43111,
        "name": "CARTOSAT-2F",
        "group": "resource",
        "lat": -19.463887863308138,
        "lon": -127.8552156603472,
        "alt_km": 513.4411615430063,
        "timestamp": "2025-12-23T07:45:09.054224+00:00",
        "meta_object_name": "CARTOSAT-2F",
        "meta_object_id": "2018-004A",
        "meta_epoch": "2025-12-22T22:58:23.852064",
        "meta_mean_motion": 15.19217359,
        "meta_eccentricity": 0.00015153,
        "meta_inclination": 97.4306,
        "meta_ra_of_asc_node": 54.4286,
        "meta_arg_of_pericenter": 109.6698,
        "meta_mean_anomaly": 250.4701,
        "meta_ephemeris_type": 0,
        "meta_classification_type": "U",
        "meta_norad_cat_id": 43111,
        "meta_element_set_no": 999,
        "meta_rev_at_epoch": 44057,
        "meta_bstar": 0.00023803619,
        "meta_mean_motion_dot": 4.945e-05,
        "meta_mean_motion_ddot": 0,
        "tle_line1": "1 43111U 18004A   25356.95722051  .00004945  00000+0  23804-3 0  9996",
        "tle_line2": "2 43111  97.4306  54.4286 0001515 109.6698 250.4701 15.19217359440573"
      },
      "geometry": {
        "type": "Point",
        "coordinates": [
          -127.8552156603472,
          -19.463887863308138
        ]
      }
    },
    {
      "type": "Feature",
      "properties": {
        "norad_id": 43259,
        "name": "GAOFEN-1 02",
        "group": "resource",
        "lat": 42.35102530112609,
        "lon": -117.44438052018177,
        "alt_km": 635.8230498324165,
        "timestamp": "2025-12-23T07:45:09.054234+00:00",
        "meta_object_name": "GAOFEN-1 02",
        "meta_object_id": "2018-031A",
        "meta_epoch": "2025-12-22T23:00:04.394880",
        "meta_mean_motion": 14.76434296,
        "meta_eccentricity": 0.00024573,
        "meta_inclination": 98.0794,
        "meta_ra_of_asc_node": 54.751,
        "meta_arg_of_pericenter": 177.9131,
        "meta_mean_anomaly": 182.2089,
        "meta_ephemeris_type": 0,
        "meta_classification_type": "U",
        "meta_norad_cat_id": 43259,
        "meta_element_set_no": 999,
        "meta_rev_at_epoch": 41669,
        "meta_bstar": 0.00010060897,
        "meta_mean_motion_dot": 6.48e-06,
        "meta_mean_motion_ddot": 0,
        "tle_line1": "1 43259U 18031A   25356.95838420  .00000648  00000+0  10061-3 0  9994",
        "tle_line2": "2 43259  98.0794  54.7510 0002457 177.9131 182.2089 14.76434296416693"
      },
      "geometry": {
        "type": "Point",
        "coordinates": [
          -117.44438052018177,
          42.35102530112609
        ]
      }
    },
    {
      "type": "Feature",
      "properties": {
        "norad_id": 43260,
        "name": "GAOFEN-1 03",
        "group": "resource",
        "lat": -71.30975652155335,
        "lon": -149.83361841944563,
        "alt_km": 646.6563143203448,
        "timestamp": "2025-12-23T07:45:09.054244+00:00",
        "meta_object_name": "GAOFEN-1 03",
        "meta_object_id": "2018-031B",
        "meta_epoch": "2025-12-22T22:28:37.819776",
        "meta_mean_motion": 14.76457001,
        "meta_eccentricity": 0.00017023,
        "meta_inclination": 98.0784,
        "meta_ra_of_asc_node": 54.605,
        "meta_arg_of_pericenter": 267.789,
        "meta_mean_anomaly": 92.3124,
        "meta_ephemeris_type": 0,
        "meta_classification_type": "U",
        "meta_norad_cat_id": 43260,
        "meta_element_set_no": 999,
        "meta_rev_at_epoch": 41668,
        "meta_bstar": 0.00013842995,
        "meta_mean_motion_dot": 9.11e-06,
        "meta_mean_motion_ddot": 0,
        "tle_line1": "1 43260U 18031B   25356.93654884  .00000911  00000+0  13843-3 0  9998",
        "tle_line2": "2 43260  98.0784  54.6050 0001702 267.7890  92.3124 14.76457001416683"
      },
      "geometry": {
        "type": "Point",
        "coordinates": [
          -149.83361841944563,
          -71.30975652155335
        ]
      }
    }
  ]
}